{
  "fetched_at": "2026-06-19T14:39:30.320133+00:00",
  "satellites": {
    "57166": {
      "name": "Meteor M2-3",
      "tle_line1": "1 57166U 23091A   26170.27660271 -.00000012  00000+0  13651-4 0  9990",
      "tle_line2": "2 57166  98.6081 225.2122 0004463 150.1969 209.9465 14.24046982154817"
    },
    "59051": {
      "name": "Meteor M2-4",
      "tle_line1": "1 59051U 24039A   26170.29369454 -.00000001  00000+0  19206-4 0  9999",
      "tle_line2": "2 59051  98.7011 129.5653 0007404 155.1826 204.9709 14.22429704119560"
    },
    "38771": {
      "name": "MetOp-B",
      "tle_line1": "1 38771U 12049A   26170.30136410  .00000072  00000+0  52893-4 0  9995",
      "tle_line2": "2 38771  98.6504 221.7585 0002107  14.2570 345.8667 14.21433239713562"
    },
    "43689": {
      "name": "MetOp-C",
      "tle_line1": "1 43689U 18087A   26170.25005616  .00000068  00000+0  51101-4 0  9990",
      "tle_line2": "2 43689  98.6644 229.8160 0001835 126.8899 233.2447 14.21512608395122"
    },
    "60543": {
      "name": "Arctic Weather Satellite",
      "tle_line1": "1 60543U 24149CD  26170.10145988  .00000568  00000+0  64819-4 0  9990",
      "tle_line2": "2 60543  97.6804 240.5122 0003589  99.1062 261.0562 14.89784809 99583"
    }
  }
}